[{"OBJECT_NAME":"ZACUBE-1 (TSHEPISOSAT)","OBJECT_ID":"2013-066B","EPOCH":"2026-03-07T03:05:46.622976","MEAN_MOTION":15.00291692,"ECCENTRICITY":0.00421377,"INCLINATION":97.8183,"RA_OF_ASC_NODE":27.9406,"ARG_OF_PERICENTER":228.583,"MEAN_ANOMALY":131.1769,"EPHEMERIS_TYPE":0,"CLASSIFICATION_TYPE":"U","NORAD_CAT_ID":39417,"ELEMENT_SET_NO":999,"REV_AT_EPOCH":66542,"BSTAR":0.00043751208,"MEAN_MOTION_DOT":5.523e-5,"MEAN_MOTION_DDOT":0},{"OBJECT_NAME":"WNISAT-1","OBJECT_ID":"2013-066H","EPOCH":"2026-03-07T10:25:55.074144","MEAN_MOTION":14.57863177,"ECCENTRICITY":0.01633978,"INCLINATION":97.7038,"RA_OF_ASC_NODE":222.9078,"ARG_OF_PERICENTER":191.9803,"MEAN_ANOMALY":167.7492,"EPHEMERIS_TYPE":0,"CLASSIFICATION_TYPE":"U","NORAD_CAT_ID":39423,"ELEMENT_SET_NO":999,"REV_AT_EPOCH":65190,"BSTAR":0.00048955965,"MEAN_MOTION_DOT":2.647e-5,"MEAN_MOTION_DDOT":0},{"OBJECT_NAME":"TRITON-1","OBJECT_ID":"2013-066M","EPOCH":"2026-03-07T13:50:47.120064","MEAN_MOTION":14.8118359,"ECCENTRICITY":0.008992,"INCLINATION":97.8295,"RA_OF_ASC_NODE":338.7161,"ARG_OF_PERICENTER":204.6179,"MEAN_ANOMALY":155.0729,"EPHEMERIS_TYPE":0,"CLASSIFICATION_TYPE":"U","NORAD_CAT_ID":39427,"ELEMENT_SET_NO":999,"REV_AT_EPOCH":65904,"BSTAR":0.00051828378,"MEAN_MOTION_DOT":4.267e-5,"MEAN_MOTION_DDOT":0},{"OBJECT_NAME":"GOMX-1","OBJECT_ID":"2013-066Q","EPOCH":"2026-03-07T12:13:06.642624","MEAN_MOTION":14.69087234,"ECCENTRICITY":0.01303696,"INCLINATION":97.6567,"RA_OF_ASC_NODE":273.3503,"ARG_OF_PERICENTER":44.4616,"MEAN_ANOMALY":316.6967,"EPHEMERIS_TYPE":0,"CLASSIFICATION_TYPE":"U","NORAD_CAT_ID":39430,"ELEMENT_SET_NO":999,"REV_AT_EPOCH":65498,"BSTAR":0.00032397099,"MEAN_MOTION_DOT":2.116e-5,"MEAN_MOTION_DDOT":0},{"OBJECT_NAME":"CUBEBUG-2 (LO-74)","OBJECT_ID":"2013-066AA","EPOCH":"2026-03-07T10:03:09.967104","MEAN_MOTION":14.92924451,"ECCENTRICITY":0.00589898,"INCLINATION":97.8819,"RA_OF_ASC_NODE":15.0884,"ARG_OF_PERICENTER":6.6765,"MEAN_ANOMALY":353.5227,"EPHEMERIS_TYPE":0,"CLASSIFICATION_TYPE":"U","NORAD_CAT_ID":39440,"ELEMENT_SET_NO":999,"REV_AT_EPOCH":66180,"BSTAR":0.00077492399,"MEAN_MOTION_DOT":8.261e-5,"MEAN_MOTION_DDOT":0},{"OBJECT_NAME":"NEE-02 KRYSAOR","OBJECT_ID":"2013-066AB","EPOCH":"2026-03-07T13:26:39.971904","MEAN_MOTION":14.86145234,"ECCENTRICITY":0.00678825,"INCLINATION":97.8818,"RA_OF_ASC_NODE":6.5803,"ARG_OF_PERICENTER":43.9104,"MEAN_ANOMALY":316.7478,"EPHEMERIS_TYPE":0,"CLASSIFICATION_TYPE":"U","NORAD_CAT_ID":39441,"ELEMENT_SET_NO":999,"REV_AT_EPOCH":66110,"BSTAR":0.00050473467,"MEAN_MOTION_DOT":4.558e-5,"MEAN_MOTION_DDOT":0},{"OBJECT_NAME":"FUNCUBE-1 (AO-73)","OBJECT_ID":"2013-066AE","EPOCH":"2026-03-07T09:14:08.326176","MEAN_MOTION":15.07859994,"ECCENTRICITY":0.00370244,"INCLINATION":97.8193,"RA_OF_ASC_NODE":35.8839,"ARG_OF_PERICENTER":187.1122,"MEAN_ANOMALY":172.9585,"EPHEMERIS_TYPE":0,"CLASSIFICATION_TYPE":"U","NORAD_CAT_ID":39444,"ELEMENT_SET_NO":999,"REV_AT_EPOCH":66431,"BSTAR":0.00086966278,"MEAN_MOTION_DOT":0.00013488,"MEAN_MOTION_DDOT":0},{"OBJECT_NAME":"UWE-3","OBJECT_ID":"2013-066AG","EPOCH":"2026-03-07T09:20:06.644256","MEAN_MOTION":14.9614791,"ECCENTRICITY":0.0048642,"INCLINATION":97.8593,"RA_OF_ASC_NODE":21.9121,"ARG_OF_PERICENTER":300.1835,"MEAN_ANOMALY":59.4572,"EPHEMERIS_TYPE":0,"CLASSIFICATION_TYPE":"U","NORAD_CAT_ID":39446,"ELEMENT_SET_NO":999,"REV_AT_EPOCH":66235,"BSTAR":0.00070423828,"MEAN_MOTION_DOT":8.062e-5,"MEAN_MOTION_DDOT":0},{"OBJECT_NAME":"BRITE-CA1 (TORONTO)","OBJECT_ID":"2014-033L","EPOCH":"2026-03-07T07:38:44.562048","MEAN_MOTION":14.72456016,"ECCENTRICITY":0.00778,"INCLINATION":97.9561,"RA_OF_ASC_NODE":197.2354,"ARG_OF_PERICENTER":242.6001,"MEAN_ANOMALY":116.7276,"EPHEMERIS_TYPE":0,"CLASSIFICATION_TYPE":"U","NORAD_CAT_ID":40020,"ELEMENT_SET_NO":999,"REV_AT_EPOCH":62722,"BSTAR":0.00030711,"MEAN_MOTION_DOT":1.989e-5,"MEAN_MOTION_DDOT":0},{"OBJECT_NAME":"DUCHIFAT-1","OBJECT_ID":"2014-033M","EPOCH":"2026-03-07T13:39:20.227104","MEAN_MOTION":15.49495114,"ECCENTRICITY":0.00063873,"INCLINATION":98.0631,"RA_OF_ASC_NODE":112.7467,"ARG_OF_PERICENTER":90.3519,"MEAN_ANOMALY":269.8462,"EPHEMERIS_TYPE":0,"CLASSIFICATION_TYPE":"U","NORAD_CAT_ID":40021,"ELEMENT_SET_NO":999,"REV_AT_EPOCH":63994,"BSTAR":0.0013789737,"MEAN_MOTION_DOT":0.00076511,"MEAN_MOTION_DDOT":0},{"OBJECT_NAME":"NANOSATC-BR1","OBJECT_ID":"2014-033Q","EPOCH":"2026-03-07T15:00:25.328160","MEAN_MOTION":15.28023225,"ECCENTRICITY":0.00044849,"INCLINATION":98.0843,"RA_OF_ASC_NODE":90.2239,"ARG_OF_PERICENTER":154.6166,"MEAN_ANOMALY":205.5293,"EPHEMERIS_TYPE":0,"CLASSIFICATION_TYPE":"U","NORAD_CAT_ID":40024,"ELEMENT_SET_NO":999,"REV_AT_EPOCH":63845,"BSTAR":0.00093800416,"MEAN_MOTION_DOT":0.00025626,"MEAN_MOTION_DDOT":0},{"OBJECT_NAME":"QB50P1","OBJECT_ID":"2014-033R","EPOCH":"2026-03-07T12:46:54.409152","MEAN_MOTION":15.16462692,"ECCENTRICITY":0.00080586,"INCLINATION":98.1011,"RA_OF_ASC_NODE":70.6697,"ARG_OF_PERICENTER":201.8424,"MEAN_ANOMALY":158.2465,"EPHEMERIS_TYPE":0,"CLASSIFICATION_TYPE":"U","NORAD_CAT_ID":40025,"ELEMENT_SET_NO":999,"REV_AT_EPOCH":63761,"BSTAR":0.00072370035,"MEAN_MOTION_DOT":0.00014036,"MEAN_MOTION_DDOT":0},{"OBJECT_NAME":"QB50P2","OBJECT_ID":"2014-033Y","EPOCH":"2026-03-07T14:44:12.821856","MEAN_MOTION":15.13621313,"ECCENTRICITY":0.00084835,"INCLINATION":98.0735,"RA_OF_ASC_NODE":57.3036,"ARG_OF_PERICENTER":148.2967,"MEAN_ANOMALY":211.8775,"EPHEMERIS_TYPE":0,"CLASSIFICATION_TYPE":"U","NORAD_CAT_ID":40032,"ELEMENT_SET_NO":999,"REV_AT_EPOCH":63729,"BSTAR":0.00068093429,"MEAN_MOTION_DOT":0.0001218,"MEAN_MOTION_DDOT":0},{"OBJECT_NAME":"PERSEUS-M2","OBJECT_ID":"2014-033AD","EPOCH":"2026-03-07T14:51:43.216416","MEAN_MOTION":14.95149502,"ECCENTRICITY":0.00101647,"INCLINATION":97.9877,"RA_OF_ASC_NODE":15.1849,"ARG_OF_PERICENTER":279.7324,"MEAN_ANOMALY":80.2747,"EPHEMERIS_TYPE":0,"CLASSIFICATION_TYPE":"U","NORAD_CAT_ID":40037,"ELEMENT_SET_NO":999,"REV_AT_EPOCH":63560,"BSTAR":0.00025798405,"MEAN_MOTION_DOT":2.773e-5,"MEAN_MOTION_DDOT":0},{"OBJECT_NAME":"PERSEUS-M1","OBJECT_ID":"2014-033AF","EPOCH":"2026-03-07T14:23:19.659840","MEAN_MOTION":14.95243255,"ECCENTRICITY":0.0009926,"INCLINATION":97.956,"RA_OF_ASC_NODE":9.1518,"ARG_OF_PERICENTER":276.525,"MEAN_ANOMALY":83.484,"EPHEMERIS_TYPE":0,"CLASSIFICATION_TYPE":"U","NORAD_CAT_ID":40039,"ELEMENT_SET_NO":999,"REV_AT_EPOCH":63545,"BSTAR":0.00030578319,"MEAN_MOTION_DOT":3.307e-5,"MEAN_MOTION_DDOT":0},{"OBJECT_NAME":"POLYITAN-1","OBJECT_ID":"2014-033AJ","EPOCH":"2026-03-07T13:56:21.901920","MEAN_MOTION":15.29439289,"ECCENTRICITY":0.00092645,"INCLINATION":98.105,"RA_OF_ASC_NODE":83.4768,"ARG_OF_PERICENTER":133.9045,"MEAN_ANOMALY":226.296,"EPHEMERIS_TYPE":0,"CLASSIFICATION_TYPE":"U","NORAD_CAT_ID":40042,"ELEMENT_SET_NO":999,"REV_AT_EPOCH":63804,"BSTAR":0.0010225779,"MEAN_MOTION_DOT":0.00029223,"MEAN_MOTION_DDOT":0}]
